0 CBERS 1 DEB
1 32078U 99057QS  13281.41700042  .00012996  00000-0  26705-2 0  6506
2 32078 098.2328 269.0203 0012603 023.0273 337.1490 14.60681682327602
0 CBERS 1 DEB
1 32078U 99057QS  13282.17051300  .00027000  00000-0  55219-2 0  6511
2 32078 098.2329 269.7692 0012480 021.0376 339.1335 14.60716986327715
0 CBERS 1 DEB
1 32078U 99057QS  13282.71850889  .00018813  00000-0  38533-2 0  6523
2 32078 098.2329 270.3141 0012423 019.0991 341.0673 14.60741468327797
0 CBERS 1 DEB
1 32078U 99057QS  13284.15696363  .00020532  00000-0  41998-2 0  6539
2 32078 098.2326 271.7442 0012203 015.2702 344.8864 14.60782339328007
0 CBERS 1 DEB
1 32078U 99057QS  13285.73236380  .00017449  00000-0  35683-2 0  6541
2 32078 098.2323 273.3103 0011995 011.5787 348.5687 14.60832768328236
0 CBERS 1 DEB
1 32078U 99057QS  13288.19809534  .00027566  00000-0  56126-2 0  6558
2 32078 098.2318 275.7633 0011634 003.8839 356.2450 14.60921673328593
0 CBERS 1 DEB
1 32078U 99057QS  13289.77333589  .00026814  00000-0  54532-2 0  6560
2 32078 098.2316 277.3297 0011386 359.5919 000.5270 14.60983392328820
0 CBERS 1 DEB
1 32078U 99057QS  13290.73214731  .00025889  00000-0  52619-2 0  6571
2 32078 098.2320 278.2834 0011327 356.7112 003.4012 14.61020010328962
0 CBERS 1 DEB
1 32078U 99057QS  13291.75941778  .00021951  00000-0  44620-2 0  6582
2 32078 098.2322 279.3050 0011179 353.4184 006.6868 14.61058233329114
0 CBERS 1 DEB
1 32078U 99057QS  13294.15627664  .00023496  00000-0  47654-2 0  6591
2 32078 098.2332 281.6883 0010792 346.1561 013.9342 14.61146089329466
